{"type":"FeatureCollection", "features": [
{"type":"Feature","geometry":{"type":"Polygon","coordinates":[[[121.07439,14.57019],[121.07389,14.57039],[121.07215,14.5709],[121.07143,14.57118],[121.07149,14.57143],[121.07002,14.57182],[121.06993,14.57195],[121.06996,14.57315],[121.07003,14.57345],[121.06951,14.57358],[121.06957,14.57425],[121.06899,14.57436],[121.06823,14.57441],[121.06812,14.57429],[121.06691,14.57422],[121.06698,14.57308],[121.06694,14.57268],[121.0665,14.5702],[121.06627,14.56872],[121.06604,14.56744],[121.06558,14.56482],[121.06533,14.56325],[121.06506,14.56175],[121.06474,14.56091],[121.06584,14.56059],[121.0662,14.56029],[121.06701,14.55927],[121.06702,14.55866],[121.06913,14.55809],[121.07019,14.55832],[121.07115,14.559],[121.07167,14.55947],[121.07226,14.56013],[121.07283,14.56125],[121.07297,14.56178],[121.07316,14.56264],[121.07335,14.56485],[121.07348,14.56617],[121.07378,14.56796],[121.07399,14.56886],[121.07439,14.57019]]]},"properties":{"name":"Bagong Ilog"}},
{"type":"Feature","geometry":{"type":"Polygon","coordinates":[[[121.07576,14.55921],[121.07549,14.5594],[121.07448,14.559],[121.07423,14.55932],[121.07363,14.55923],[121.07354,14.55915],[121.07467,14.55819],[121.07495,14.55806],[121.07481,14.55748],[121.07519,14.55736],[121.07526,14.55734],[121.07535,14.55762],[121.07539,14.55853],[121.07552,14.55904],[121.07576,14.55921]]]},"properties":{"name":"Bagong Katipunan"}},
{"type":"Feature","geometry":{"type":"Polygon","coordinates":[[[121.08463,14.55749],[121.08434,14.55733],[121.08429,14.5569],[121.084,14.55701],[121.08388,14.55661],[121.08332,14.55672],[121.08333,14.55703],[121.08205,14.55725],[121.08183,14.55734],[121.08033,14.55764],[121.08028,14.55716],[121.07773,14.55742],[121.07767,14.5569],[121.07724,14.55693],[121.07708,14.5568],[121.07653,14.55674],[121.07649,14.55689],[121.07574,14.5569],[121.07579,14.55721],[121.07526,14.55734],[121.07519,14.55736],[121.07504,14.5569],[121.07503,14.55628],[121.07479,14.55608],[121.07451,14.55554],[121.07433,14.55566],[121.0739,14.55561],[121.07368,14.55497],[121.07603,14.55381],[121.07658,14.55363],[121.07724,14.55357],[121.07905,14.55361],[121.08034,14.55379],[121.08153,14.55368],[121.08272,14.55333],[121.08361,14.55321],[121.08494,14.55313],[121.08607,14.5533],[121.08717,14.55325],[121.08814,14.55285],[121.08822,14.55352],[121.08793,14.55407],[121.08687,14.55475],[121.08654,14.55508],[121.08613,14.55568],[121.08518,14.55673],[121.08463,14.55749]]]},"properties":{"name":"Bambang"}},
{"type":"Feature","geometry":{"type":"Polygon","coordinates":[[[121.07133,14.55582],[121.06873,14.55668],[121.06791,14.55707],[121.06687,14.55773],[121.06618,14.55662],[121.06574,14.55614],[121.0653,14.55487],[121.06455,14.55311],[121.06432,14.55192],[121.06461,14.55187],[121.06546,14.55218],[121.06616,14.55218],[121.06807,14.55197],[121.06853,14.55217],[121.06922,14.55223],[121.06972,14.55238],[121.0696,14.55284],[121.06984,14.55291],[121.07116,14.55338],[121.07232,14.55315],[121.07294,14.5538],[121.07273,14.55424],[121.07232,14.55406],[121.07184,14.55436],[121.07231,14.55547],[121.07133,14.55582]]]},"properties":{"name":"Buting"}},
{"type":"Feature","geometry":{"type":"Polygon","coordinates":[[[121.08778,14.57185],[121.08822,14.57262],[121.08684,14.57278],[121.08671,14.57208],[121.08624,14.57218],[121.08465,14.57238],[121.08486,14.57354],[121.08383,14.57387],[121.08409,14.57437],[121.08336,14.57456],[121.08295,14.57451],[121.08312,14.57516],[121.08204,14.57522],[121.08158,14.57486],[121.08119,14.57477],[121.08078,14.57483],[121.08068,14.57518],[121.07999,14.57492],[121.07942,14.57518],[121.07907,14.57548],[121.079,14.57581],[121.07857,14.57636],[121.07751,14.57549],[121.07603,14.57403],[121.07562,14.57352],[121.07525,14.57292],[121.075,14.57231],[121.07439,14.57019],[121.07399,14.56886],[121.07378,14.56796],[121.07348,14.56617],[121.07335,14.56485],[121.07406,14.56483],[121.07516,14.56496],[121.07594,14.56518],[121.0765,14.56543],[121.07698,14.56577],[121.07858,14.56648],[121.07926,14.56674],[121.07994,14.56709],[121.08062,14.56767],[121.08078,14.56792],[121.0817,14.56964],[121.08192,14.57012],[121.08259,14.56986],[121.08549,14.56859],[121.08593,14.56843],[121.08778,14.57185]]]},"properties":{"name":"Caniogan"}},
{"type":"Feature","geometry":{"type":"Polygon","coordinates":[[[121.10416,14.60837],[121.10322,14.61146],[121.10219,14.61476],[121.10193,14.61565],[121.10167,14.61693],[121.10162,14.61759],[121.10164,14.61859],[121.10188,14.62066],[121.09785,14.61984],[121.09738,14.62083],[121.09658,14.6209],[121.09526,14.62111],[121.09267,14.62139],[121.09251,14.61872],[121.0924,14.61652],[121.09217,14.61327],[121.09207,14.61127],[121.09195,14.60974],[121.09199,14.6092],[121.09479,14.60934],[121.09405,14.60677],[121.09513,14.60703],[121.09509,14.60741],[121.09616,14.60778],[121.09644,14.60743],[121.09683,14.60778],[121.09703,14.60779],[121.09705,14.60823],[121.09671,14.60877],[121.09708,14.60986],[121.09725,14.61],[121.09748,14.61067],[121.09777,14.61188],[121.09816,14.61219],[121.09878,14.61218],[121.09895,14.6124],[121.09933,14.61237],[121.10062,14.61318],[121.10134,14.61151],[121.10147,14.61132],[121.10185,14.61003],[121.10176,14.60994],[121.10141,14.60775],[121.10208,14.60775],[121.10291,14.60797],[121.10416,14.60837]]]},"properties":{"name":"Dela Paz"}},
{"type":"Feature","geometry":{"type":"Polygon","coordinates":[[[121.08814,14.55285],[121.08717,14.55325],[121.08607,14.5533],[121.08494,14.55313],[121.08361,14.55321],[121.08272,14.55333],[121.08153,14.55368],[121.08034,14.55379],[121.07905,14.55361],[121.07905,14.55314],[121.07924,14.55282],[121.07992,14.55254],[121.08029,14.55247],[121.08042,14.55205],[121.08012,14.55081],[121.0807,14.55028],[121.08091,14.54985],[121.08105,14.54856],[121.08103,14.54753],[121.08109,14.54743],[121.08192,14.54745],[121.08358,14.54718],[121.08775,14.54695],[121.08781,14.54692],[121.08782,14.5453],[121.08873,14.5454],[121.09008,14.54588],[121.09129,14.54598],[121.09223,14.54619],[121.09437,14.54674],[121.09424,14.54783],[121.09367,14.54973],[121.09353,14.55032],[121.09293,14.55202],[121.09269,14.55241],[121.09227,14.55282],[121.09188,14.55302],[121.09133,14.55286],[121.09026,14.55231],[121.08964,14.55213],[121.08908,14.55214],[121.08867,14.55236],[121.08814,14.55285]]]},"properties":{"name":"Kalawaan"}},
{"type":"Feature","geometry":{"type":"Polygon","coordinates":[[[121.07719,14.56357],[121.07654,14.56383],[121.07647,14.56461],[121.07594,14.56518],[121.07516,14.56496],[121.07406,14.56483],[121.07335,14.56485],[121.07316,14.56264],[121.07297,14.56178],[121.074,14.56146],[121.07396,14.56131],[121.07529,14.56144],[121.07656,14.56134],[121.07685,14.56117],[121.07731,14.56134],[121.0775,14.56161],[121.07749,14.56189],[121.07695,14.56265],[121.0768,14.56329],[121.07719,14.56357]]]},"properties":{"name":"Kapasigan"}},
{"type":"Feature","geometry":{"type":"Polygon","coordinates":[[[121.06098,14.57492],[121.0587,14.57686],[121.05712,14.57813],[121.05595,14.5766],[121.05593,14.57588],[121.05594,14.57397],[121.05563,14.57351],[121.05566,14.5729],[121.05556,14.57271],[121.0559,14.57213],[121.05502,14.57167],[121.05366,14.57089],[121.05298,14.57029],[121.05497,14.56876],[121.05533,14.56858],[121.05576,14.56865],[121.05606,14.56804],[121.05524,14.56701],[121.05581,14.56681],[121.05609,14.56724],[121.05684,14.56718],[121.05851,14.56694],[121.05891,14.56701],[121.05925,14.56668],[121.05996,14.5666],[121.06048,14.56663],[121.0617,14.56702],[121.06209,14.56706],[121.06262,14.56688],[121.06299,14.56717],[121.06309,14.56742],[121.06376,14.56739],[121.06592,14.56739],[121.06604,14.56744],[121.06627,14.56872],[121.0665,14.5702],[121.06452,14.57191],[121.06098,14.57492]]]},"properties":{"name":"Kapitolyo"}},
{"type":"Feature","geometry":{"type":"Polygon","coordinates":[[[121.08463,14.55749],[121.08337,14.55797],[121.08281,14.55814],[121.08063,14.55891],[121.08047,14.55931],[121.0806,14.55974],[121.0775,14.56086],[121.07732,14.56068],[121.07657,14.56076],[121.07649,14.56018],[121.07619,14.56028],[121.07596,14.56004],[121.07576,14.55921],[121.07552,14.55904],[121.07539,14.55853],[121.07535,14.55762],[121.07526,14.55734],[121.07579,14.55721],[121.07574,14.5569],[121.07649,14.55689],[121.07653,14.55674],[121.07708,14.5568],[121.07724,14.55693],[121.07767,14.5569],[121.07773,14.55742],[121.08028,14.55716],[121.08033,14.55764],[121.08183,14.55734],[121.08205,14.55725],[121.08333,14.55703],[121.08332,14.55672],[121.08388,14.55661],[121.084,14.55701],[121.08429,14.5569],[121.08434,14.55733],[121.08463,14.55749]]]},"properties":{"name":"Malinao"}},
{"type":"Feature","geometry":{"type":"Polygon","coordinates":[[[121.10416,14.60837],[121.10291,14.60797],[121.10208,14.60775],[121.10141,14.60775],[121.10176,14.60994],[121.10185,14.61003],[121.10147,14.61132],[121.10134,14.61151],[121.10062,14.61318],[121.09933,14.61237],[121.09895,14.6124],[121.09878,14.61218],[121.09816,14.61219],[121.09777,14.61188],[121.09748,14.61067],[121.09725,14.61],[121.09708,14.60986],[121.09671,14.60877],[121.09705,14.60823],[121.09703,14.60779],[121.09683,14.60778],[121.09644,14.60743],[121.09616,14.60778],[121.09509,14.60741],[121.09513,14.60703],[121.09405,14.60677],[121.09479,14.60934],[121.09199,14.6092],[121.09208,14.6088],[121.09134,14.60837],[121.09178,14.60799],[121.09196,14.60759],[121.09168,14.60656],[121.09029,14.60693],[121.08981,14.60678],[121.08877,14.60822],[121.08854,14.6081],[121.08721,14.60691],[121.08778,14.60645],[121.08813,14.60607],[121.08868,14.60455],[121.08942,14.60312],[121.08978,14.60267],[121.09035,14.60169],[121.09049,14.60115],[121.09051,14.60036],[121.09023,14.59948],[121.08958,14.59906],[121.08856,14.59903],[121.08813,14.5992],[121.08775,14.59948],[121.08745,14.59986],[121.08728,14.60086],[121.08711,14.60129],[121.08616,14.6025],[121.08557,14.60298],[121.08497,14.60326],[121.08378,14.60345],[121.08326,14.60338],[121.08281,14.6031],[121.0826,14.60276],[121.08241,14.60219],[121.08233,14.60153],[121.08241,14.60034],[121.08256,14.59922],[121.08235,14.59674],[121.08227,14.59504],[121.08235,14.59329],[121.08246,14.59259],[121.08304,14.59261],[121.08418,14.59279],[121.08671,14.59206],[121.08737,14.59327],[121.08844,14.59508],[121.08942,14.59666],[121.08999,14.59729],[121.09057,14.59812],[121.0914,14.595],[121.09262,14.59497],[121.09261,14.59433],[121.09291,14.59428],[121.09283,14.59352],[121.0957,14.59324],[121.09754,14.59309],[121.09773,14.5941],[121.09863,14.59382],[121.09855,14.59351],[121.09983,14.59333],[121.1001,14.59509],[121.10026,14.59576],[121.10221,14.59575],[121.10238,14.59647],[121.10187,14.59656],[121.10187,14.597],[121.10944,14.59726],[121.10893,14.59812],[121.10783,14.59986],[121.10572,14.60339],[121.10536,14.6045],[121.10416,14.60837]]]},"properties":{"name":"Manggahan"}},
{"type":"Feature","geometry":{"type":"Polygon","coordinates":[[[121.09584,14.5819],[121.09431,14.5808],[121.09126,14.58128],[121.09061,14.58131],[121.08977,14.58147],[121.08947,14.58126],[121.08724,14.58147],[121.08446,14.58204],[121.08258,14.58264],[121.08185,14.5807],[121.08097,14.57882],[121.07972,14.57733],[121.07857,14.57636],[121.079,14.57581],[121.07907,14.57548],[121.07942,14.57518],[121.07999,14.57492],[121.08068,14.57518],[121.08078,14.57483],[121.08119,14.57477],[121.08158,14.57486],[121.08204,14.57522],[121.08312,14.57516],[121.08295,14.57451],[121.08336,14.57456],[121.08409,14.57437],[121.08383,14.57387],[121.08486,14.57354],[121.08465,14.57238],[121.08624,14.57218],[121.08671,14.57208],[121.08684,14.57278],[121.08822,14.57262],[121.08778,14.57185],[121.09149,14.57099],[121.09381,14.57104],[121.09448,14.57108],[121.09492,14.57017],[121.095,14.56969],[121.09473,14.56912],[121.09492,14.56904],[121.09652,14.56913],[121.0969,14.56925],[121.09803,14.56993],[121.09827,14.56999],[121.09898,14.5709],[121.10025,14.5723],[121.10176,14.57373],[121.10097,14.57482],[121.10028,14.57588],[121.09889,14.57782],[121.09755,14.5796],[121.09584,14.5819]]]},"properties":{"name":"Maybunga"}},
{"type":"Feature","geometry":{"type":"Polygon","coordinates":[[[121.06823,14.57441],[121.06824,14.57561],[121.06835,14.57623],[121.06857,14.5762],[121.06869,14.57689],[121.06854,14.57752],[121.06858,14.57805],[121.06803,14.57844],[121.06879,14.57922],[121.06798,14.58058],[121.06722,14.58014],[121.0666,14.5799],[121.06615,14.57986],[121.0637,14.57987],[121.06365,14.57807],[121.06358,14.57787],[121.06098,14.57492],[121.06452,14.57191],[121.0665,14.5702],[121.06694,14.57268],[121.06698,14.57308],[121.06691,14.57422],[121.06812,14.57429],[121.06823,14.57441]]]},"properties":{"name":"Oranbo"}},
{"type":"Feature","geometry":{"type":"Polygon","coordinates":[[[121.09041,14.56245],[121.09075,14.56318],[121.09063,14.56353],[121.09012,14.56405],[121.08917,14.56421],[121.08868,14.56437],[121.08806,14.56471],[121.08755,14.56478],[121.0872,14.56451],[121.08608,14.56415],[121.08546,14.56405],[121.08474,14.56406],[121.08454,14.5642],[121.08441,14.5646],[121.08433,14.56544],[121.08401,14.56616],[121.08367,14.56639],[121.08331,14.56634],[121.08274,14.56596],[121.08231,14.56556],[121.0818,14.56536],[121.0821,14.56444],[121.08203,14.56349],[121.08181,14.563],[121.08348,14.56238],[121.08399,14.5608],[121.08409,14.5601],[121.08413,14.55945],[121.08523,14.55903],[121.08591,14.56077],[121.08661,14.56266],[121.08672,14.56276],[121.08754,14.56263],[121.08841,14.56257],[121.08964,14.56264],[121.09041,14.56245]]]},"properties":{"name":"Palatiw"}},
{"type":"Feature","geometry":{"type":"Polygon","coordinates":[[[121.09041,14.56245],[121.08964,14.56264],[121.08841,14.56257],[121.08754,14.56263],[121.08672,14.56276],[121.08661,14.56266],[121.08591,14.56077],[121.08523,14.55903],[121.08463,14.55749],[121.08518,14.55673],[121.08613,14.55568],[121.08654,14.55508],[121.08687,14.55475],[121.08793,14.55407],[121.08822,14.55352],[121.08814,14.55285],[121.08867,14.55236],[121.08908,14.55214],[121.08964,14.55213],[121.09026,14.55231],[121.09133,14.55286],[121.09188,14.55302],[121.09227,14.55282],[121.09269,14.55241],[121.09293,14.55202],[121.09353,14.55032],[121.09367,14.54973],[121.09424,14.54783],[121.09437,14.54674],[121.09462,14.54528],[121.09502,14.5448],[121.09561,14.54445],[121.09604,14.54407],[121.09634,14.54353],[121.09641,14.54295],[121.09618,14.5416],[121.09628,14.54092],[121.09684,14.54023],[121.09773,14.53936],[121.09825,14.53849],[121.09862,14.53776],[121.09936,14.5371],[121.09997,14.53666],[121.10182,14.53559],[121.10245,14.53517],[121.10258,14.53494],[121.10313,14.53225],[121.10334,14.532],[121.10359,14.53224],[121.10419,14.53409],[121.10382,14.53408],[121.10429,14.53469],[121.10473,14.53611],[121.1057,14.53578],[121.10551,14.53612],[121.10561,14.53668],[121.10579,14.53702],[121.10566,14.53722],[121.10579,14.53768],[121.10587,14.53884],[121.10574,14.53948],[121.10589,14.54038],[121.10572,14.54044],[121.10654,14.54351],[121.10645,14.54355],[121.10668,14.54456],[121.107,14.5457],[121.10733,14.54594],[121.10845,14.54589],[121.10934,14.54591],[121.10953,14.5461],[121.10972,14.54662],[121.10848,14.548],[121.10743,14.54882],[121.10613,14.54995],[121.10564,14.55043],[121.10491,14.55095],[121.10388,14.55143],[121.10241,14.55237],[121.10182,14.55266],[121.10101,14.55357],[121.1003,14.55356],[121.09934,14.55322],[121.09912,14.55332],[121.09866,14.55404],[121.09812,14.5547],[121.0983,14.55519],[121.09826,14.55558],[121.09786,14.5565],[121.09783,14.55685],[121.09818,14.5586],[121.09701,14.55931],[121.09647,14.55981],[121.09637,14.56021],[121.09685,14.56112],[121.09718,14.56163],[121.09799,14.5622],[121.09808,14.56237],[121.09663,14.56195],[121.09434,14.56124],[121.09411,14.56174],[121.09403,14.56221],[121.09227,14.56244],[121.09092,14.56251],[121.09041,14.56245]]]},"properties":{"name":"Pinagbuhatan"}},
{"type":"Feature","geometry":{"type":"Polygon","coordinates":[[[121.06604,14.56744],[121.06592,14.56739],[121.06376,14.56739],[121.06309,14.56742],[121.06299,14.56717],[121.06262,14.56688],[121.06209,14.56706],[121.0617,14.56702],[121.06048,14.56663],[121.05996,14.5666],[121.05925,14.56668],[121.05891,14.56701],[121.05851,14.56694],[121.05684,14.56718],[121.05609,14.56724],[121.05581,14.56681],[121.05524,14.56701],[121.05606,14.56804],[121.05576,14.56865],[121.05533,14.56858],[121.05497,14.56876],[121.05298,14.57029],[121.05197,14.56923],[121.05165,14.56836],[121.0514,14.56794],[121.05195,14.56765],[121.05418,14.56623],[121.05462,14.56584],[121.05568,14.56552],[121.05752,14.56515],[121.05847,14.56487],[121.05999,14.56398],[121.06046,14.56345],[121.06107,14.56293],[121.06195,14.56207],[121.06277,14.56146],[121.06474,14.56091],[121.06506,14.56175],[121.06533,14.56325],[121.06558,14.56482],[121.06604,14.56744]]]},"properties":{"name":"Pineda"}},
{"type":"Feature","geometry":{"type":"Polygon","coordinates":[[[121.10944,14.59726],[121.10187,14.597],[121.10187,14.59656],[121.10238,14.59647],[121.10221,14.59575],[121.10026,14.59576],[121.1001,14.59509],[121.09983,14.59333],[121.09855,14.59351],[121.09863,14.59382],[121.09773,14.5941],[121.09754,14.59309],[121.0957,14.59324],[121.09283,14.59352],[121.09291,14.59428],[121.09261,14.59433],[121.09262,14.59497],[121.0914,14.595],[121.09057,14.59812],[121.08999,14.59729],[121.08942,14.59666],[121.08844,14.59508],[121.08737,14.59327],[121.08671,14.59206],[121.08418,14.59279],[121.08304,14.59261],[121.08246,14.59259],[121.08304,14.59023],[121.08351,14.5879],[121.08356,14.58661],[121.08319,14.58456],[121.08297,14.58364],[121.08258,14.58264],[121.08446,14.58204],[121.08724,14.58147],[121.08947,14.58126],[121.08977,14.58147],[121.09061,14.58131],[121.09126,14.58128],[121.09431,14.5808],[121.09584,14.5819],[121.09517,14.58294],[121.09444,14.58455],[121.09374,14.58652],[121.09322,14.58825],[121.09281,14.59006],[121.09737,14.58962],[121.09924,14.58949],[121.1015,14.58928],[121.10346,14.5889],[121.10355,14.58948],[121.10354,14.5905],[121.10367,14.59273],[121.1037,14.59367],[121.10473,14.59358],[121.10485,14.59349],[121.10473,14.59253],[121.10476,14.59223],[121.10579,14.59221],[121.10669,14.59228],[121.10664,14.59179],[121.10677,14.59166],[121.10757,14.5916],[121.10791,14.59184],[121.10794,14.59231],[121.11045,14.59224],[121.11027,14.59297],[121.11029,14.59397],[121.11018,14.59452],[121.10986,14.59477],[121.10944,14.59554],[121.10944,14.59726]]]},"properties":{"name":"Rosario"}},
{"type":"Feature","geometry":{"type":"Polygon","coordinates":[[[121.08099,14.56526],[121.08067,14.566],[121.08127,14.56682],[121.08069,14.56705],[121.08085,14.56776],[121.08078,14.56792],[121.08062,14.56767],[121.07994,14.56709],[121.07926,14.56674],[121.07858,14.56648],[121.07698,14.56577],[121.0765,14.56543],[121.07594,14.56518],[121.07647,14.56461],[121.07654,14.56383],[121.07719,14.56357],[121.07751,14.56343],[121.078,14.56346],[121.07802,14.56456],[121.07818,14.5649],[121.07838,14.56503],[121.07907,14.56491],[121.07976,14.56509],[121.08099,14.56526]]]},"properties":{"name":"Sagad"}},
{"type":"Feature","geometry":{"type":"Polygon","coordinates":[[[121.06178,14.59046],[121.06145,14.59076],[121.06095,14.59028],[121.0605,14.59034],[121.06001,14.59028],[121.05966,14.59007],[121.05978,14.58684],[121.06001,14.58299],[121.06002,14.58211],[121.05987,14.58157],[121.05882,14.58023],[121.05712,14.57813],[121.0587,14.57686],[121.06098,14.57492],[121.06358,14.57787],[121.06365,14.57807],[121.0637,14.57987],[121.06375,14.58111],[121.06378,14.58502],[121.06383,14.58826],[121.06392,14.58876],[121.06334,14.58908],[121.06178,14.59046]]]},"properties":{"name":"San Antonio"}},
{"type":"Feature","geometry":{"type":"Polygon","coordinates":[[[121.07368,14.55497],[121.07231,14.55547],[121.07184,14.55436],[121.07232,14.55406],[121.07273,14.55424],[121.07294,14.5538],[121.07232,14.55315],[121.07116,14.55338],[121.06984,14.55291],[121.07006,14.55202],[121.07096,14.5524],[121.0723,14.55131],[121.07299,14.55165],[121.07336,14.55095],[121.07366,14.55064],[121.07384,14.55068],[121.07582,14.54983],[121.07502,14.54884],[121.07489,14.54796],[121.07576,14.54758],[121.07609,14.54752],[121.07664,14.54723],[121.07734,14.54663],[121.07759,14.54667],[121.07818,14.54699],[121.07879,14.54693],[121.0796,14.54668],[121.08007,14.54667],[121.08078,14.54691],[121.08103,14.54753],[121.08105,14.54856],[121.08091,14.54985],[121.0807,14.55028],[121.08012,14.55081],[121.08042,14.55205],[121.08029,14.55247],[121.07992,14.55254],[121.07924,14.55282],[121.07905,14.55314],[121.07905,14.55361],[121.07724,14.55357],[121.07658,14.55363],[121.07603,14.55381],[121.07368,14.55497]]]},"properties":{"name":"San Joaquin"}},
{"type":"Feature","geometry":{"type":"Polygon","coordinates":[[[121.07656,14.56134],[121.07529,14.56144],[121.07396,14.56131],[121.074,14.56146],[121.07297,14.56178],[121.07283,14.56125],[121.07226,14.56013],[121.07272,14.5597],[121.07356,14.55949],[121.07349,14.55937],[121.07363,14.55923],[121.07423,14.55932],[121.07448,14.559],[121.07549,14.5594],[121.07576,14.55921],[121.07596,14.56004],[121.07619,14.56028],[121.07649,14.56018],[121.07657,14.56076],[121.07656,14.56134]]]},"properties":{"name":"San Jose"}},
{"type":"Feature","geometry":{"type":"Polygon","coordinates":[[[121.0969,14.56925],[121.09652,14.56913],[121.09492,14.56904],[121.09473,14.56912],[121.095,14.56969],[121.09492,14.57017],[121.09448,14.57108],[121.09381,14.57104],[121.09149,14.57099],[121.08778,14.57185],[121.08593,14.56843],[121.08549,14.56859],[121.08259,14.56986],[121.08192,14.57012],[121.0817,14.56964],[121.08078,14.56792],[121.08085,14.56776],[121.08069,14.56705],[121.08127,14.56682],[121.08067,14.566],[121.08099,14.56526],[121.0818,14.56536],[121.08231,14.56556],[121.08274,14.56596],[121.08331,14.56634],[121.08367,14.56639],[121.08401,14.56616],[121.08433,14.56544],[121.08441,14.5646],[121.08454,14.5642],[121.08474,14.56406],[121.08546,14.56405],[121.08608,14.56415],[121.0872,14.56451],[121.08755,14.56478],[121.08806,14.56471],[121.08868,14.56437],[121.08917,14.56421],[121.09012,14.56405],[121.09063,14.56353],[121.09075,14.56318],[121.09041,14.56245],[121.09092,14.56251],[121.09227,14.56244],[121.09403,14.56221],[121.09411,14.56174],[121.09434,14.56124],[121.09663,14.56195],[121.09808,14.56237],[121.09705,14.56321],[121.09595,14.56385],[121.09594,14.5643],[121.09626,14.5647],[121.09629,14.56513],[121.09661,14.56507],[121.09681,14.56685],[121.0969,14.56925]]]},"properties":{"name":"San Miguel"}},
{"type":"Feature","geometry":{"type":"Polygon","coordinates":[[[121.07828,14.56393],[121.07848,14.56441],[121.07818,14.5649],[121.07802,14.56456],[121.078,14.56346],[121.07751,14.56343],[121.07719,14.56357],[121.0768,14.56329],[121.07695,14.56265],[121.07749,14.56189],[121.0775,14.56161],[121.07731,14.56134],[121.07685,14.56117],[121.07656,14.56134],[121.07657,14.56076],[121.07732,14.56068],[121.0775,14.56086],[121.0806,14.55974],[121.08047,14.55931],[121.08063,14.55891],[121.08281,14.55814],[121.08337,14.55797],[121.08463,14.55749],[121.08523,14.55903],[121.08413,14.55945],[121.08409,14.5601],[121.08111,14.56118],[121.08086,14.56123],[121.08096,14.56171],[121.0806,14.56193],[121.08001,14.56194],[121.08,14.56229],[121.07931,14.56236],[121.07931,14.56259],[121.07877,14.56263],[121.07807,14.5629],[121.07865,14.56341],[121.07821,14.56359],[121.07828,14.56393]]]},"properties":{"name":"San Nicolas"}},
{"type":"Feature","geometry":{"type":"Polygon","coordinates":[[[121.0806,14.56193],[121.08069,14.56209],[121.08064,14.56343],[121.0804,14.56424],[121.08,14.56415],[121.07926,14.56411],[121.07828,14.56393],[121.07821,14.56359],[121.07865,14.56341],[121.07807,14.5629],[121.07877,14.56263],[121.07931,14.56259],[121.07931,14.56236],[121.08,14.56229],[121.08001,14.56194],[121.0806,14.56193]]]},"properties":{"name":"Santa Cruz"}},
{"type":"Feature","geometry":{"type":"Polygon","coordinates":[[[121.07349,14.55937],[121.07356,14.55949],[121.07272,14.5597],[121.07226,14.56013],[121.07167,14.55947],[121.07115,14.559],[121.07019,14.55832],[121.06913,14.55809],[121.06702,14.55866],[121.06687,14.55773],[121.06791,14.55707],[121.06873,14.55668],[121.07133,14.55582],[121.07201,14.55673],[121.07246,14.55746],[121.07307,14.55877],[121.07349,14.55937]]]},"properties":{"name":"Santa Rosa"}},
{"type":"Feature","geometry":{"type":"Polygon","coordinates":[[[121.08409,14.5601],[121.08399,14.5608],[121.08348,14.56238],[121.08181,14.563],[121.08203,14.56349],[121.0821,14.56444],[121.0818,14.56536],[121.08099,14.56526],[121.07976,14.56509],[121.07907,14.56491],[121.07838,14.56503],[121.07818,14.5649],[121.07848,14.56441],[121.07828,14.56393],[121.07926,14.56411],[121.08,14.56415],[121.0804,14.56424],[121.08064,14.56343],[121.08069,14.56209],[121.0806,14.56193],[121.08096,14.56171],[121.08086,14.56123],[121.08111,14.56118],[121.08409,14.5601]]]},"properties":{"name":"Santo Tomas"}},
{"type":"Feature","geometry":{"type":"Polygon","coordinates":[[[121.09267,14.62139],[121.0927,14.62176],[121.09046,14.62174],[121.08857,14.62177],[121.08853,14.62245],[121.08821,14.62272],[121.0866,14.62272],[121.08632,14.62228],[121.08579,14.62284],[121.08469,14.62389],[121.08409,14.62414],[121.08365,14.62401],[121.08282,14.62318],[121.08255,14.623],[121.08174,14.62304],[121.08185,14.62231],[121.0818,14.62147],[121.08146,14.62042],[121.08112,14.61994],[121.08003,14.61927],[121.07942,14.61857],[121.07903,14.61797],[121.07855,14.61696],[121.07835,14.61604],[121.07836,14.61529],[121.07853,14.6146],[121.07887,14.61377],[121.07961,14.61265],[121.08026,14.61212],[121.0817,14.61102],[121.08358,14.60969],[121.08469,14.60882],[121.0856,14.60825],[121.08721,14.60691],[121.08854,14.6081],[121.08877,14.60822],[121.08981,14.60678],[121.09029,14.60693],[121.09168,14.60656],[121.09196,14.60759],[121.09178,14.60799],[121.09134,14.60837],[121.09208,14.6088],[121.09199,14.6092],[121.09195,14.60974],[121.09207,14.61127],[121.09217,14.61327],[121.0924,14.61652],[121.09251,14.61872],[121.09267,14.62139]]]},"properties":{"name":"Santolan"}},
{"type":"Feature","geometry":{"type":"Polygon","coordinates":[[[121.07363,14.55923],[121.07349,14.55937],[121.07307,14.55877],[121.07246,14.55746],[121.07201,14.55673],[121.07133,14.55582],[121.07231,14.55547],[121.07368,14.55497],[121.0739,14.55561],[121.07433,14.55566],[121.07451,14.55554],[121.07479,14.55608],[121.07503,14.55628],[121.07504,14.5569],[121.07519,14.55736],[121.07481,14.55748],[121.07495,14.55806],[121.07467,14.55819],[121.07354,14.55915],[121.07363,14.55923]]]},"properties":{"name":"Sumilang"}},
{"type":"Feature","geometry":{"type":"Polygon","coordinates":[[[121.08304,14.59023],[121.08107,14.58983],[121.07988,14.58972],[121.0798,14.59192],[121.0793,14.59211],[121.07906,14.59248],[121.07869,14.59242],[121.07753,14.59283],[121.07374,14.59339],[121.07326,14.59377],[121.07273,14.59349],[121.07227,14.59347],[121.07228,14.59314],[121.07119,14.59325],[121.07088,14.59344],[121.06985,14.59327],[121.06943,14.5929],[121.06822,14.59199],[121.06689,14.59164],[121.06255,14.59066],[121.06178,14.59046],[121.06334,14.58908],[121.06392,14.58876],[121.06383,14.58826],[121.06378,14.58502],[121.06375,14.58111],[121.0637,14.57987],[121.06615,14.57986],[121.0666,14.5799],[121.06722,14.58014],[121.06798,14.58058],[121.06879,14.57922],[121.06803,14.57844],[121.06858,14.57805],[121.06854,14.57752],[121.06869,14.57689],[121.06857,14.5762],[121.06835,14.57623],[121.06824,14.57561],[121.06823,14.57441],[121.06899,14.57436],[121.06957,14.57425],[121.06951,14.57358],[121.07003,14.57345],[121.06996,14.57315],[121.06993,14.57195],[121.07002,14.57182],[121.07149,14.57143],[121.07143,14.57118],[121.07215,14.5709],[121.07389,14.57039],[121.07439,14.57019],[121.075,14.57231],[121.07525,14.57292],[121.07562,14.57352],[121.07603,14.57403],[121.07751,14.57549],[121.07857,14.57636],[121.07972,14.57733],[121.08097,14.57882],[121.08185,14.5807],[121.08258,14.58264],[121.08297,14.58364],[121.08319,14.58456],[121.08356,14.58661],[121.08351,14.5879],[121.08304,14.59023]]]},"properties":{"name":"Ugong"}},
{"type":"Feature","geometry":{"type":"Polygon","coordinates":[[[121.10346,14.5889],[121.1015,14.58928],[121.09924,14.58949],[121.09737,14.58962],[121.09281,14.59006],[121.09322,14.58825],[121.09374,14.58652],[121.09444,14.58455],[121.09517,14.58294],[121.09584,14.5819],[121.09755,14.5796],[121.09889,14.57782],[121.10028,14.57588],[121.10097,14.57482],[121.102,14.57568],[121.10319,14.57644],[121.10423,14.57689],[121.10508,14.57765],[121.10562,14.57765],[121.10586,14.57781],[121.10637,14.57854],[121.10663,14.5787],[121.10734,14.57879],[121.10802,14.57899],[121.10856,14.57959],[121.10906,14.58095],[121.10888,14.58153],[121.10903,14.58227],[121.10869,14.58295],[121.10844,14.58321],[121.10837,14.58365],[121.10813,14.58386],[121.10828,14.5841],[121.10818,14.58448],[121.10834,14.58537],[121.10821,14.58565],[121.1084,14.58613],[121.10849,14.58669],[121.10834,14.58716],[121.10864,14.58772],[121.10409,14.58873],[121.10346,14.5889]]]},"properties":{"name":"Santa Lucia"}}
]}